NORAD_CAT_ID,OBJECT_NAME,OBJECT_TYPE,EPOCH,MEAN_MOTION,ECCENTRICITY,INCLINATION,RA_OF_ASC_NODE,ARG_OF_PERICENTER,MEAN_ANOMALY,BSTAR,MEAN_MOTION_DOT,MEAN_MOTION_DDOT,TLE_LINE0,TLE_LINE1,TLE_LINE2,SEMIMAJOR_AXIS,PERIOD,APOGEE,PERIGEE,DECAYED
55965.0,STARLINK-5894,PAYLOAD,2023-07-27 07:05:34,15.69921099,0.0003454,69.9986,171.2584,262.978,97.1023,1.5497e-06,-2.7e-07,0.0,0 STARLINK-5894,1 55965U 23037BD  23208.29553347 -.00000027  00000-0  15497-5 0  9999,2 55965  69.9986 171.2584 0003454 262.9780  97.1023 15.69921099 21171,6737.26,91.724,361.452,356.798,0.0
55965.0,STARLINK-5894,PAYLOAD,2023-07-27 14:44:19,15.69933468,0.0003394,70.0016,170.3623,263.8127,96.2682,-2.1263e-05,-2.77e-05,0.0,0 STARLINK-5894,1 55965U 23037BD  23208.61411442 -.00002770  00000-0 -21263-4 0  9999,2 55965  70.0016 170.3623 0003394 263.8127  96.2682 15.69933468 20881,6737.224,91.724,361.376,356.803,0.0
55965.0,STARLINK-5894,PAYLOAD,2023-07-28 07:33:37,15.69861174,0.0002578,69.9992,168.392,259.7819,100.3086,0.00012392,0.00014673,0.0,0 STARLINK-5894,1 55965U 23037BD  23209.31501540  .00014673  00000-0  12392-3 0  9991,2 55965  69.9992 168.3920 0002578 259.7819 100.3086 15.69861174 21333,6737.431,91.728,361.033,357.559,0.0
55965.0,STARLINK-5894,PAYLOAD,2023-07-29 03:26:22,15.69929063,0.000331,69.9975,166.0623,257.7319,102.3506,1.5779e-05,1.685e-05,0.0,0 STARLINK-5894,1 55965U 23037BD  23210.14331086  .00001685  00000-0  15779-4 0  9992,2 55965  69.9975 166.0623 0003310 257.7319 102.3506 15.69929063 21462,6737.237,91.724,361.332,356.872,0.0
55965.0,STARLINK-5894,PAYLOAD,2023-07-29 14:08:38,15.69919216,0.0002979,69.9986,164.8097,265.1766,94.9089,5.3318e-06,4.28e-06,0.0,0 STARLINK-5894,1 55965U 23037BD  23210.58933763  .00000428  00000-0  53318-5 0  9996,2 55965  69.9986 164.8097 0002979 265.1766  94.9089 15.69919216 21533,6737.265,91.724,361.137,357.123,0.0
55965.0,STARLINK-5894,PAYLOAD,2023-07-31 02:50:41,15.69919162,0.0003303,69.9971,160.5095,263.1566,96.9254,-1.6517e-05,-2.198e-05,0.0,0 STARLINK-5894,1 55965U 23037BD  23212.11854137 -.00002198  00000-0 -16517-4 0  9991,2 55965  69.9971 160.5095 0003303 263.1566  96.9254 15.69919162 21778,6737.265,91.724,361.356,356.905,0.0
55965.0,STARLINK-5894,PAYLOAD,2023-08-01 00:15:13,15.69927142,0.0002775,69.9995,158.0033,269.8366,90.2512,1.3233e-05,1.379e-05,0.0,0 STARLINK-5894,1 55965U 23037BD  23213.01056786  .00001379  00000-0  13233-4 0  9995,2 55965  69.9995 158.0033 0002775 269.8366  90.2512 15.69927142 21918,6737.242,91.724,360.977,357.238,0.0
55965.0,STARLINK-5894,PAYLOAD,2023-08-01 23:11:30,15.69915521,0.0003104,69.998,155.3147,267.9133,92.1707,1.6321e-05,1.749e-05,0.0,0 STARLINK-5894,1 55965U 23037BD  23213.96632302  .00001749  00000-0  16321-4 0  9995,2 55965  69.9980 155.3147 0003104 267.9133  92.1707 15.69915521 22068,6737.276,91.725,361.232,357.049,0.0
55965.0,STARLINK-5894,PAYLOAD,2023-08-02 05:18:30,15.69923043,0.0003144,69.9973,154.5989,269.7001,90.3834,2.1955e-05,2.428e-05,0.0,0 STARLINK-5894,1 55965U 23037BD  23214.22118500  .00002428  00000-0  21955-4 0  9998,2 55965  69.9973 154.5989 0003144 269.7001  90.3834 15.69923043 22107,6737.254,91.724,361.237,357.001,0.0
55965.0,STARLINK-5894,PAYLOAD,2023-08-02 12:57:16,15.69916948,0.0003174,69.9976,153.7045,269.9464,90.1368,1.0788e-05,1.084e-05,0.0,0 STARLINK-5894,1 55965U 23037BD  23214.53977565  .00001084  00000-0  10788-4 0  9995,2 55965  69.9976 153.7045 0003174 269.9464  90.1368 15.69916948 22153,6737.272,91.725,361.275,356.998,0.0
55965.0,STARLINK-5894,PAYLOAD,2023-08-02 23:39:31,15.6993091,0.0003211,69.9981,152.449,273.8406,86.2422,6.5041e-06,5.7e-06,0.0,0 STARLINK-5894,1 55965U 23037BD  23214.98578532  .00000570  00000-0  65041-5 0  9997,2 55965  69.9981 152.4490 0003211 273.8406  86.2422 15.69930910 22221,6737.232,91.724,361.26,356.933,0.0
55965.0,STARLINK-5894,PAYLOAD,2023-08-03 05:46:34,15.6989992,0.0003161,69.9987,151.733,268.7988,91.2845,-2.8054e-05,-3.581e-05,0.0,0 STARLINK-5894,1 55965U 23037BD  23215.24067593 -.00003581  00000-0 -28054-4 0  9996,2 55965  69.9987 151.7330 0003161 268.7988  91.2845 15.69899920 22268,6737.32,91.726,361.315,357.056,0.0
55965.0,STARLINK-5894,PAYLOAD,2023-08-03 22:35:49,15.69918484,0.0003397,69.9979,149.7612,275.2808,84.8,-8.0664e-07,-3.1e-06,0.0,0 STARLINK-5894,1 55965U 23037BD  23215.94154705 -.00000310  00000-0 -80664-6 0  9999,2 55965  69.9979 149.7612 0003397 275.2808  84.8000 15.69918484 22374,6737.267,91.725,361.421,356.844,0.0
55965.0,STARLINK-5894,PAYLOAD,2023-08-04 04:42:49,15.69930839,0.0003252,69.9982,149.0455,273.7825,86.2999,1.2547e-05,1.297e-05,0.0,0 STARLINK-5894,1 55965U 23037BD  23216.19640341  .00001297  00000-0  12547-4 0  9999,2 55965  69.9982 149.0455 0003252 273.7825  86.2999 15.69930839 22414,6737.232,91.724,361.288,356.906,0.0
55965.0,STARLINK-5894,PAYLOAD,2023-08-04 23:03:51,15.69925456,0.0003304,69.9986,146.8957,274.0023,86.0795,5.4395e-06,4.41e-06,0.0,0 STARLINK-5894,1 55965U 23037BD  23216.96100728  .00000441  00000-0  54395-5 0  9992,2 55965  69.9986 146.8957 0003304 274.0023  86.0795 15.69925456 22536,6737.247,91.724,361.338,356.886,0.0
55965.0,STARLINK-5894,PAYLOAD,2023-08-05 05:10:52,15.6990924,0.0003353,69.9984,146.1798,280.1273,79.9544,-1.9023e-05,-2.498e-05,0.0,0 STARLINK-5894,1 55965U 23037BD  23217.21588795 -.00002498  00000-0 -19023-4 0  9999,2 55965  69.9984 146.1798 0003353 280.1273  79.9544 15.69909240 22579,6737.294,91.725,361.418,356.9,0.0
55965.0,STARLINK-5894,PAYLOAD,2023-08-06 02:35:23,15.69932754,0.0003377,69.9987,143.6751,265.6489,94.4321,4.2085e-07,-1.62e-06,0.0,0 STARLINK-5894,1 55965U 23037BD  23218.10790559 -.00000162  00000-0  42085-6 0  9992,2 55965  69.9987 143.6751 0003377 265.6489  94.4321 15.69932754 22713,6737.226,91.724,361.367,356.816,0.0
55965.0,STARLINK-5894,PAYLOAD,2023-08-06 05:38:55,15.69902013,0.0003516,69.9982,143.3144,273.1447,86.9346,-3.3219e-05,-4.202e-05,0.0,0 STARLINK-5894,1 55965U 23037BD  23218.23536485 -.00004202  00000-0 -33219-4 0  9999,2 55965  69.9982 143.3144 0003516 273.1447  86.9346 15.69902013 22734,6737.314,91.725,361.548,356.81,0.0
55965.0,STARLINK-5894,PAYLOAD,2023-08-07 01:31:37,15.699684,0.000326,69.9989,140.9854,274.3687,85.7137,5.3657e-05,6.255e-05,0.0,0 STARLINK-5894,1 55965U 23037BD  23219.06362827  .00006255  00000-0  53657-4 0  9994,2 55965  69.9989 140.9854 0003260 274.3687  85.7137 15.69968400 22868,6737.124,91.722,361.186,356.793,0.0
55965.0,STARLINK-5894,PAYLOAD,2023-08-07 04:35:11,15.69912129,0.0002875,69.9987,140.6275,277.1761,82.9108,-1.2107e-05,-1.667e-05,0.0,0 STARLINK-5894,1 55965U 23037BD  23219.19110857 -.00001667  00000-0 -12107-4 0  9991,2 55965  69.9987 140.6275 0002875 277.1761  82.9108 15.69912129 22881,6737.285,91.725,361.087,357.213,0.0
55965.0,STARLINK-5894,PAYLOAD,2023-08-07 12:13:56,15.69921959,0.0003482,69.9967,139.7307,275.2973,84.7825,2.4301e-05,2.71e-05,0.0,0 STARLINK-5894,1 55965U 23037BD  23219.50967710  .00002710  00000-0  24301-4 0  9991,2 55965  69.9967 139.7307 0003482 275.2973  84.7825 15.69921959 22936,6737.257,91.724,361.468,356.776,0.0
55965.0,STARLINK-5894,PAYLOAD,2023-08-07 21:24:27,15.69910967,0.0003067,69.999,138.657,264.7781,95.3065,3.0861e-06,1.58e-06,0.0,0 STARLINK-5894,1 55965U 23037BD  23219.89198711  .00000158  00000-0  30861-5 0  9993,2 55965  69.9990 138.6570 0003067 264.7781  95.3065 15.69910967 22998,6737.289,91.725,361.22,357.087,0.0
55965.0,STARLINK-5894,PAYLOAD,2023-08-08 05:03:13,15.6991781,0.0003131,69.9991,137.7612,275.812,84.2719,1.0794e-05,1.085e-05,0.0,0 STARLINK-5894,1 55965U 23037BD  23220.21056748  .00001085  00000-0  10794-4 0  9996,2 55965  69.9991 137.7612 0003131 275.8120  84.2719 15.69917810 23042,6737.269,91.725,361.244,357.025,0.0
55965.0,STARLINK-5894,PAYLOAD,2023-08-09 19:17:02,15.6982438,0.0004118,69.9968,133.2806,258.5247,101.5487,0.0001931,0.00022977,0.0,0 STARLINK-5894,1 55965U 23037BD  23221.80350595  .00022977  00000-0  19310-3 0  9994,2 55965  69.9968 133.2806 0004118 258.5247 101.5487 15.69824380 23297,6737.536,91.73,362.176,356.627,0.0
55965.0,STARLINK-5894,PAYLOAD,2023-08-10 04:27:31,15.69925269,0.0003238,69.9972,132.2056,264.3265,95.7561,1.728e-05,1.866e-05,0.0,0 STARLINK-5894,1 55965U 23037BD  23222.18577875  .00001866  00000-0  17280-4 0  9997,2 55965  69.9972 132.2056 0003238 264.3265  95.7561 15.69925269 23357,6737.248,91.724,361.294,356.931,0.0
55965.0,STARLINK-5894,PAYLOAD,2023-08-11 00:20:18,15.69915436,0.0003557,69.9995,129.8779,264.9682,95.1108,-3.8771e-06,-6.79e-06,0.0,0 STARLINK-5894,1 55965U 23037BD  23223.01410523 -.00000679  00000-0 -38771-5 0  9998,2 55965  69.9995 129.8779 0003557 264.9682  95.1108 15.69915436 23489,6737.276,91.725,361.537,356.744,0.0
55965.0,STARLINK-5894,PAYLOAD,2023-08-11 18:41:19,15.69924419,0.0003264,69.9973,127.7284,260.0224,100.0603,7.0882e-06,6.4e-06,0.0,0 STARLINK-5894,1 55965U 23037BD  23223.77869867  .00000640  00000-0  70882-5 0  9995,2 55965  69.9973 127.7284 0003264 260.0224 100.0603 15.69924419 23608,6737.25,91.724,361.314,356.916,0.0
55965.0,STARLINK-5894,PAYLOAD,2023-08-12 23:44:37,15.69917619,0.0003539,69.9957,124.325,266.4516,93.6275,1.8272e-05,1.984e-05,0.0,0 STARLINK-5894,1 55965U 23037BD  23224.98931874  .00001984  00000-0  18272-4 0  9993,2 55965  69.9957 124.3250 0003539 266.4516  93.6275 15.69917619 23791,6737.27,91.725,361.519,356.75,0.0
55965.0,STARLINK-5894,PAYLOAD,2023-08-13 16:33:53,15.69927636,0.0003416,69.9958,122.3542,266.1717,93.9088,1.1389e-05,1.157e-05,0.0,0 STARLINK-5894,1 55965U 23037BD  23225.69019854  .00001157  00000-0  11389-4 0  9991,2 55965  69.9958 122.3542 0003416 266.1717  93.9088 15.69927636 23906,6737.241,91.724,361.407,356.805,0.0
55965.0,STARLINK-5894,PAYLOAD,2023-08-14 03:16:09,15.69922284,0.0003752,69.998,121.1009,268.3185,91.7581,-7.4731e-06,-1.111e-05,0.0,0 STARLINK-5894,1 55965U 23037BD  23226.13622226 -.00001111  00000-0 -74731-5 0  9997,2 55965  69.9980 121.1009 0003752 268.3185  91.7581 15.69922284 23977,6737.256,91.724,361.649,356.594,0.0
